CCSDS_OMM_VERS = 2.0
CREATION_DATE  = 
ORIGINATOR     = 

OBJECT_NAME    = 2026-027B
OBJECT_ID      = 2026-027B
CENTER_NAME    = EARTH
REF_FRAME      = TEME
TIME_SYSTEM    = UTC
MEAN_ELEMENT_THEORY = SGP/SGP4

EPOCH          = 2026-03-05T14:44:26.957760
MEAN_MOTION    = 15.17716193
ECCENTRICITY   = .00099834
INCLINATION    = 97.4898
RA_OF_ASC_NODE = 193.6723
ARG_OF_PERICENTER = 210.9717
MEAN_ANOMALY   = 149.0929

EPHEMERIS_TYPE = 0
CLASSIFICATION_TYPE = U
NORAD_CAT_ID   = 67747
ELEMENT_SET_NO = 999
REV_AT_EPOCH   = 324
BSTAR          = .54379466E-3
MEAN_MOTION_DOT = .10921E-3
MEAN_MOTION_DDOT = 0

CCSDS_OMM_VERS = 2.0
CREATION_DATE  = 
ORIGINATOR     = 

OBJECT_NAME    = 2026-027C
OBJECT_ID      = 2026-027C
CENTER_NAME    = EARTH
REF_FRAME      = TEME
TIME_SYSTEM    = UTC
MEAN_ELEMENT_THEORY = SGP/SGP4

EPOCH          = 2026-03-05T14:42:28.496448
MEAN_MOTION    = 15.17749817
ECCENTRICITY   = .00103491
INCLINATION    = 97.4910
RA_OF_ASC_NODE = 193.6775
ARG_OF_PERICENTER = 213.5543
MEAN_ANOMALY   = 146.5037

EPHEMERIS_TYPE = 0
CLASSIFICATION_TYPE = U
NORAD_CAT_ID   = 67748
ELEMENT_SET_NO = 999
REV_AT_EPOCH   = 324
BSTAR          = .38919464E-3
MEAN_MOTION_DOT = .7802E-4
MEAN_MOTION_DDOT = 0

CCSDS_OMM_VERS = 2.0
CREATION_DATE  = 
ORIGINATOR     = 

OBJECT_NAME    = 2026-027D
OBJECT_ID      = 2026-027D
CENTER_NAME    = EARTH
REF_FRAME      = TEME
TIME_SYSTEM    = UTC
MEAN_ELEMENT_THEORY = SGP/SGP4

EPOCH          = 2026-03-05T14:38:10.280544
MEAN_MOTION    = 15.18062177
ECCENTRICITY   = .00099928
INCLINATION    = 97.4905
RA_OF_ASC_NODE = 193.6803
ARG_OF_PERICENTER = 218.7915
MEAN_ANOMALY   = 141.2602

EPHEMERIS_TYPE = 0
CLASSIFICATION_TYPE = U
NORAD_CAT_ID   = 67749
ELEMENT_SET_NO = 999
REV_AT_EPOCH   = 319
BSTAR          = .62448427E-3
MEAN_MOTION_DOT = .1268E-3
MEAN_MOTION_DDOT = 0

CCSDS_OMM_VERS = 2.0
CREATION_DATE  = 
ORIGINATOR     = 

OBJECT_NAME    = 2026-027E
OBJECT_ID      = 2026-027E
CENTER_NAME    = EARTH
REF_FRAME      = TEME
TIME_SYSTEM    = UTC
MEAN_ELEMENT_THEORY = SGP/SGP4

EPOCH          = 2026-03-05T14:38:17.566656
MEAN_MOTION    = 15.18023516
ECCENTRICITY   = .00092137
INCLINATION    = 97.4916
RA_OF_ASC_NODE = 193.6832
ARG_OF_PERICENTER = 219.5014
MEAN_ANOMALY   = 140.5549

EPHEMERIS_TYPE = 0
CLASSIFICATION_TYPE = U
NORAD_CAT_ID   = 67750
ELEMENT_SET_NO = 999
REV_AT_EPOCH   = 324
BSTAR          = .54837977E-3
MEAN_MOTION_DOT = .11109E-3
MEAN_MOTION_DDOT = 0

CCSDS_OMM_VERS = 2.0
CREATION_DATE  = 
ORIGINATOR     = 

OBJECT_NAME    = 2026-027F
OBJECT_ID      = 2026-027F
CENTER_NAME    = EARTH
REF_FRAME      = TEME
TIME_SYSTEM    = UTC
MEAN_ELEMENT_THEORY = SGP/SGP4

EPOCH          = 2026-03-05T14:35:18.883680
MEAN_MOTION    = 15.18309572
ECCENTRICITY   = .00103837
INCLINATION    = 97.4914
RA_OF_ASC_NODE = 193.6865
ARG_OF_PERICENTER = 220.4943
MEAN_ANOMALY   = 139.5520

EPHEMERIS_TYPE = 0
CLASSIFICATION_TYPE = U
NORAD_CAT_ID   = 67751
ELEMENT_SET_NO = 999
REV_AT_EPOCH   = 324
BSTAR          = .86669438E-3
MEAN_MOTION_DOT = .17764E-3
MEAN_MOTION_DDOT = 0

CCSDS_OMM_VERS = 2.0
CREATION_DATE  = 
ORIGINATOR     = 

OBJECT_NAME    = 2026-027G
OBJECT_ID      = 2026-027G
CENTER_NAME    = EARTH
REF_FRAME      = TEME
TIME_SYSTEM    = UTC
MEAN_ELEMENT_THEORY = SGP/SGP4

EPOCH          = 2026-03-04T05:23:16.160640
MEAN_MOTION    = 15.18028016
ECCENTRICITY   = .00094052
INCLINATION    = 97.4907
RA_OF_ASC_NODE = 192.3130
ARG_OF_PERICENTER = 225.8320
MEAN_ANOMALY   = 134.2142

EPHEMERIS_TYPE = 0
CLASSIFICATION_TYPE = U
NORAD_CAT_ID   = 67752
ELEMENT_SET_NO = 999
REV_AT_EPOCH   = 303
BSTAR          = .80953139E-3
MEAN_MOTION_DOT = .16447E-3
MEAN_MOTION_DDOT = 0

CCSDS_OMM_VERS = 2.0
CREATION_DATE  = 
ORIGINATOR     = 

OBJECT_NAME    = JIELONG-3 R/B
OBJECT_ID      = 2026-027H
CENTER_NAME    = EARTH
REF_FRAME      = TEME
TIME_SYSTEM    = UTC
MEAN_ELEMENT_THEORY = SGP/SGP4

EPOCH          = 2026-03-05T15:06:45.331776
MEAN_MOTION    = 15.71700172
ECCENTRICITY   = .02271286
INCLINATION    = 97.5127
RA_OF_ASC_NODE = 195.3278
ARG_OF_PERICENTER = 259.7597
MEAN_ANOMALY   = 97.7985

EPHEMERIS_TYPE = 0
CLASSIFICATION_TYPE = U
NORAD_CAT_ID   = 67753
ELEMENT_SET_NO = 999
REV_AT_EPOCH   = 334
BSTAR          = .65564617E-3
MEAN_MOTION_DOT = .447764E-2
MEAN_MOTION_DDOT = .2376893E-5

CCSDS_OMM_VERS = 2.0
CREATION_DATE  = 
ORIGINATOR     = 

OBJECT_NAME    = JIELONG-3 DEB
OBJECT_ID      = 2026-027J
CENTER_NAME    = EARTH
REF_FRAME      = TEME
TIME_SYSTEM    = UTC
MEAN_ELEMENT_THEORY = SGP/SGP4

EPOCH          = 2026-03-05T14:44:14.368416
MEAN_MOTION    = 15.99585974
ECCENTRICITY   = .01421348
INCLINATION    = 97.5036
RA_OF_ASC_NODE = 195.6532
ARG_OF_PERICENTER = 259.6564
MEAN_ANOMALY   = 98.8665

EPHEMERIS_TYPE = 0
CLASSIFICATION_TYPE = U
NORAD_CAT_ID   = 67754
ELEMENT_SET_NO = 999
REV_AT_EPOCH   = 330
BSTAR          = .13010358E-2
MEAN_MOTION_DOT = .2134327E-1
MEAN_MOTION_DDOT = .2449791E-5

CCSDS_OMM_VERS = 2.0
CREATION_DATE  = 
ORIGINATOR     = 

OBJECT_NAME    = 2026-028A
OBJECT_ID      = 2026-028A
CENTER_NAME    = EARTH
REF_FRAME      = TEME
TIME_SYSTEM    = UTC
MEAN_ELEMENT_THEORY = SGP/SGP4

EPOCH          = 2026-03-05T07:50:47.756832
MEAN_MOTION    = 0.99523917
ECCENTRICITY   = .00419948
INCLINATION    = 0.4807
RA_OF_ASC_NODE = 289.7181
ARG_OF_PERICENTER = 229.1578
MEAN_ANOMALY   = 201.2672

EPHEMERIS_TYPE = 0
CLASSIFICATION_TYPE = U
NORAD_CAT_ID   = 67756
ELEMENT_SET_NO = 999
REV_AT_EPOCH   = 21
BSTAR          = 0
MEAN_MOTION_DOT = .4E-7
MEAN_MOTION_DDOT = 0

CCSDS_OMM_VERS = 2.0
CREATION_DATE  = 
ORIGINATOR     = 

OBJECT_NAME    = JAM-E JAM 1
OBJECT_ID      = 2026-028B
CENTER_NAME    = EARTH
REF_FRAME      = TEME
TIME_SYSTEM    = UTC
MEAN_ELEMENT_THEORY = SGP/SGP4

EPOCH          = 2026-03-05T02:04:02.601408
MEAN_MOTION    = 1.00292745
ECCENTRICITY   = .0008844
INCLINATION    = 0.5036
RA_OF_ASC_NODE = 285.5776
ARG_OF_PERICENTER = 132.3450
MEAN_ANOMALY   = 170.7595

EPHEMERIS_TYPE = 0
CLASSIFICATION_TYPE = U
NORAD_CAT_ID   = 67757
ELEMENT_SET_NO = 999
REV_AT_EPOCH   = 7
BSTAR          = 0
MEAN_MOTION_DOT = .146E-5
MEAN_MOTION_DDOT = 0

CCSDS_OMM_VERS = 2.0
CREATION_DATE  = 
ORIGINATOR     = 

OBJECT_NAME    = KUIPER-00159
OBJECT_ID      = 2026-030A
CENTER_NAME    = EARTH
REF_FRAME      = TEME
TIME_SYSTEM    = UTC
MEAN_ELEMENT_THEORY = SGP/SGP4

EPOCH          = 2026-03-05T14:20:23.689824
MEAN_MOTION    = 15.35556565
ECCENTRICITY   = .00046489
INCLINATION    = 51.8846
RA_OF_ASC_NODE = 238.8981
ARG_OF_PERICENTER = 34.5972
MEAN_ANOMALY   = 325.5316

EPHEMERIS_TYPE = 0
CLASSIFICATION_TYPE = U
NORAD_CAT_ID   = 67764
ELEMENT_SET_NO = 999
REV_AT_EPOCH   = 446
BSTAR          = .74089571E-3
MEAN_MOTION_DOT = .2571E-3
MEAN_MOTION_DDOT = 0

CCSDS_OMM_VERS = 2.0
CREATION_DATE  = 
ORIGINATOR     = 

OBJECT_NAME    = KUIPER-00160
OBJECT_ID      = 2026-030B
CENTER_NAME    = EARTH
REF_FRAME      = TEME
TIME_SYSTEM    = UTC
MEAN_ELEMENT_THEORY = SGP/SGP4

EPOCH          = 2026-03-05T14:22:09.231744
MEAN_MOTION    = 15.35398264
ECCENTRICITY   = .00050858
INCLINATION    = 51.8813
RA_OF_ASC_NODE = 238.8984
ARG_OF_PERICENTER = 43.7019
MEAN_ANOMALY   = 316.4369

EPHEMERIS_TYPE = 0
CLASSIFICATION_TYPE = U
NORAD_CAT_ID   = 67765
ELEMENT_SET_NO = 999
REV_AT_EPOCH   = 446
BSTAR          = .12133443E-2
MEAN_MOTION_DOT = .4223E-3
MEAN_MOTION_DDOT = 0

