2026-027B               
1 67747U 26027B   26064.61420090  .00010921  00000+0  54379-3 0  9991
2 67747  97.4898 193.6723 0009983 210.9717 149.0929 15.17716193  3249
2026-027C               
1 67748U 26027C   26064.61282982  .00007802  00000+0  38919-3 0  9994
2 67748  97.4910 193.6775 0010349 213.5543 146.5037 15.17749817  3247
2026-027D               
1 67749U 26027D   26064.60984121  .00012680  00000+0  62448-3 0  9992
2 67749  97.4905 193.6803 0009992 218.7915 141.2602 15.18062177  3198
2026-027E               
1 67750U 26027E   26064.60992554  .00011109  00000+0  54838-3 0  9992
2 67750  97.4916 193.6832 0009213 219.5014 140.5549 15.18023516  3241
2026-027F               
1 67751U 26027F   26064.60785745  .00017764  00000+0  86669-3 0  9995
2 67751  97.4914 193.6865 0010383 220.4943 139.5520 15.18309572  3244
2026-027G               
1 67752U 26027G   26063.22449260  .00016447  00000+0  80953-3 0  9999
2 67752  97.4907 192.3130 0009405 225.8320 134.2142 15.18028016  3039
JIELONG-3 R/B           
1 67753U 26027H   26064.62969134  .00447764  23769-5  65565-3 0  9997
2 67753  97.5127 195.3278 0227128 259.7597  97.7985 15.71700172  3348
JIELONG-3 DEB           
1 67754U 26027J   26064.61405519  .02134327  24498-5  13010-2 0  9996
2 67754  97.5036 195.6532 0142134 259.6564  98.8665 15.99585974  3304
2026-028A               
1 67756U 26028A   26064.32694163  .00000004  00000+0  00000+0 0  9993
2 67756   0.4807 289.7181 0041994 229.1578 201.2672  0.99523917   217
JAM-E JAM 1             
1 67757U 26028B   26064.08614122  .00000146  00000+0  00000+0 0  9991
2 67757   0.5036 285.5776 0008844 132.3450 170.7595  1.00292745    71
KUIPER-00159            
1 67764U 26030A   26064.59749641  .00025710  00000+0  74090-3 0  9991
2 67764  51.8846 238.8981 0004648  34.5972 325.5316 15.35556565  4460
KUIPER-00160            
1 67765U 26030B   26064.59871796  .00042230  00000+0  12133-2 0  9994
2 67765  51.8813 238.8984 0005085  43.7019 316.4369 15.35398264  4465
